[{"OBJECT_NAME":"STARLINK-4619","OBJECT_ID":"2022-141AL","EPOCH":"2026-03-09T22:46:21.699264","MEAN_MOTION":15.08811049,"ECCENTRICITY":0.00016033,"INCLINATION":53.219,"RA_OF_ASC_NODE":353.1952,"ARG_OF_PERICENTER":103.8378,"MEAN_ANOMALY":256.2792,"EPHEMERIS_TYPE":0,"CLASSIFICATION_TYPE":"U","NORAD_CAT_ID":54191,"ELEMENT_SET_NO":999,"REV_AT_EPOCH":18603,"BSTAR":0.00020399921,"MEAN_MOTION_DOT":2.958e-5,"MEAN_MOTION_DDOT":0},{"OBJECT_NAME":"DMSP 5D-2 F11 DEB","OBJECT_ID":"1991-082AJ","EPOCH":"2026-03-09T06:39:32.486112","MEAN_MOTION":15.08629375,"ECCENTRICITY":0.00070318,"INCLINATION":98.5181,"RA_OF_ASC_NODE":189.4283,"ARG_OF_PERICENTER":237.8685,"MEAN_ANOMALY":152.6153,"EPHEMERIS_TYPE":0,"CLASSIFICATION_TYPE":"U","NORAD_CAT_ID":28321,"ELEMENT_SET_NO":999,"REV_AT_EPOCH":14288,"BSTAR":0.0082823802,"MEAN_MOTION_DOT":0.00131946,"MEAN_MOTION_DDOT":0}]
